H1 CPF 01  gfz 2022 01 18 01  5181 tandemx   
H2 1003001  6202 36605    2022 01 18 00 59 42 2022 01 23 00 00 42   120 1 1  0 0 0
H9
10 0 59597  20142.000000  0    1232820.682   -748380.702  -6742436.533
10 0 59597  20262.000000  0     326490.300   -864465.829  -6832738.798
10 0 59597  20382.000000  0    -587253.075   -949655.725  -6803882.903
10 0 59597  20502.000000  0   -1492032.954  -1002488.071  -6656363.788
10 0 59597  20622.000000  0   -2371602.050  -1022341.844  -6392717.890
10 0 59597  20742.000000  0   -3210127.554  -1009443.192  -6017482.891
10 0 59597  20862.000000  0   -3992470.387   -964853.057  -5537128.750
10 0 59597  20982.000000  0   -4704458.943   -890436.371  -4959957.898
10 0 59597  21102.000000  0   -5333149.055   -788812.953  -4295972.721
10 0 59597  21222.000000  0   -5867066.185   -663291.557  -3556713.394
10 0 59597  21342.000000  0   -6296425.885   -517787.206  -2755066.022
10 0 59597  21462.000000  0   -6613325.316   -356723.377  -1905043.023
10 0 59597  21582.000000  0   -6811902.136   -184922.129  -1021540.285
10 0 59597  21702.000000  0   -6888456.167     -7482.670   -120072.418
10 0 59597  21822.000000  0   -6841525.534    170347.539    783506.488
10 0 59597  21942.000000  0   -6671920.159    343305.543   1673288.467
10 0 59597  22062.000000  0   -6382710.107    506246.157   2533600.964
10 0 59597  22182.000000  0   -5979167.563    654272.668   3349292.139
10 0 59597  22302.000000  0   -5468663.766    782861.611   4106005.223
10 0 59597  22422.000000  0   -4860524.909    887978.071   4790435.189
10 0 59597  22542.000000  0   -4165851.262    966178.683   5390563.458
10 0 59597  22662.000000  0   -3397305.084   1014700.209   5895866.448
10 0 59597  22782.000000  0   -2568871.560   1031531.707   6297496.634
10 0 59597  22902.000000  0   -1695597.206   1015469.049   6588432.767
10 0 59597  23022.000000  0    -793310.822    966151.148   6763595.886
10 0 59597  23142.000000  0     121664.977    884076.422   6819931.208
10 0 59597  23262.000000  0    1032808.252    770599.664   6756457.508
10 0 59597  23382.000000  0    1923694.644    627909.823   6574283.094
10 0 59597  23502.000000  0    2778292.127    458988.654   6276587.975
10 0 59597  23622.000000  0    3581249.991    267550.725   5868572.867
10 0 59597  23742.000000  0    4318177.286     57965.498   5357373.508
10 0 59597  23862.000000  0    4975905.096   -164837.063   4751941.871
10 0 59597  23982.000000  0    5542728.630   -395475.737   4062895.182
10 0 59597  24102.000000  0    6008624.913   -628239.820   3302334.433
10 0 59597  24222.000000  0    6365440.984   -857220.986   2483633.410
10 0 59597  24342.000000  0    6607046.196  -1076452.067   1621201.036
10 0 59597  24462.000000  0    6729444.356  -1280049.574    730223.736
10 0 59597  24582.000000  0    6730846.291  -1462357.100   -173607.954
10 0 59597  24702.000000  0    6611696.898  -1618085.377  -1074385.686
10 0 59597  24822.000000  0    6374655.874  -1742444.381  -1956271.901
10 0 59597  24942.000000  0    6024534.501  -1831265.278  -2803786.491
10 0 59597  25062.000000  0    5568189.297  -1881108.648  -3602083.584
10 0 59597  25182.000000  0    5014377.333  -1889356.447  -4337213.149
10 0 59597  25302.000000  0    4373577.550  -1854285.618  -4996363.192
10 0 59597  25422.000000  0    3657781.640  -1775122.679  -5568078.285
10 0 59597  25542.000000  0    2880260.107  -1652077.819  -6042449.653
10 0 59597  25662.000000  0    2055311.338  -1486357.669  -6411275.741
10 0 59597  25782.000000  0    1197996.901  -1280157.069  -6668194.147
10 0 59597  25902.000000  0     323867.164  -1036630.870  -6808780.468
10 0 59597  26022.000000  0    -551316.507   -759846.167  -6830616.185
10 0 59597  26142.000000  0   -1411859.443   -454715.475  -6733325.467
10 0 59597  26262.000000  0   -2242409.035   -126911.414  -6518581.067
10 0 59597  26382.000000  0   -3028222.378    217235.749  -6190077.544
10 0 59597  26502.000000  0   -3755422.530    570855.977  -5753474.947
10 0 59597  26622.000000  0   -4411243.020    926671.884  -5216311.867
10 0 59597  26742.000000  0   -4984254.431   1277142.905  -4587886.674
10 0 59597  26862.000000  0   -5464570.981   1614620.888  -3879108.767
10 0 59597  26982.000000  0   -5844030.237   1931512.856  -3102317.948
10 0 59597  27102.000000  0   -6116343.024   2220446.589  -2271076.529
10 0 59597  27222.000000  0   -6277209.714   2474436.559  -1399935.885
10 0 59597  27342.000000  0   -6324399.033   2687046.211   -504180.904
10 0 59597  27462.000000  0   -6257786.632   2852541.698    400443.169
10 0 59597  27582.000000  0   -6079350.321   2966033.060   1298015.511
10 0 59597  27702.000000  0   -5793122.441   3023599.668   2172728.742
10 0 59597  27822.000000  0   -5405100.469   3022395.544   3009176.227
10 0 59597  27942.000000  0   -4923119.341   2960732.678   3792631.192
10 0 59597  28062.000000  0   -4356686.982   2838139.073   4509312.065
10 0 59597  28182.000000  0   -3716789.006   2655391.326   5146626.572
10 0 59597  28302.000000  0   -3015668.578   2414521.688   5693392.263
10 0 59597  28422.000000  0   -2266584.726   2118799.302   6140030.499
10 0 59597  28542.000000  0   -1483554.953   1772685.422   6478729.143
10 0 59597  28662.000000  0    -681088.211   1381764.393   6703572.207
10 0 59597  28782.000000  0     126084.709    952651.681   6810636.023
10 0 59597  28902.000000  0     923280.863    492881.051   6798053.301
10 0 59597  29022.000000  0    1696131.054     10772.605   6666043.335
10 0 59597  29142.000000  0    2430837.504   -484716.870   6416908.945
10 0 59597  29262.000000  0    3114419.974   -984159.661   6054999.816
10 0 59597  29382.000000  0    3734947.354  -1477835.155   5586641.810
10 0 59597  29502.000000  0    4281749.892  -1955918.754   5020031.758
10 0 59597  29622.000000  0    4745607.274  -2408677.063   4365099.881
10 0 59597  29742.000000  0    5118911.689  -2826666.781   3633341.876
10 0 59597  29862.000000  0    5395801.279  -3200933.027   2837619.363
10 0 59597  29982.000000  0    5572258.413  -3523201.265   1991932.417
10 0 59597  30102.000000  0    5646171.419  -3786059.530   1111170.742
10 0 59597  30222.000000  0    5617358.927  -3983126.200    210845.387
10 0 59597  30342.000000  0    5487554.918  -4109197.700   -693191.877
10 0 59597  30462.000000  0    5260355.098  -4160373.736  -1585037.113
10 0 59597  30582.000000  0    4941125.397  -4134155.006  -2449022.632
10 0 59597  30702.000000  0    4536875.232  -4029512.440  -3269998.725
10 0 59597  30822.000000  0    4056099.928  -3846926.350  -4033603.167
10 0 59597  30942.000000  0    3508596.018  -3588394.581  -4726512.346
10 0 59597  31062.000000  0    2905255.383  -3257410.395  -5336670.049
10 0 59597  31182.000000  0    2257843.155  -2858911.104  -5853489.128
10 0 59597  31302.000000  0    1578766.007  -2399200.803  -6268024.524
10 0 59597  31422.000000  0     880833.993  -1885847.519  -6573118.963
10 0 59597  31542.000000  0     177019.565  -1327555.171  -6763516.188
10 0 59597  31662.000000  0    -519780.025   -734015.636  -6835941.192
10 0 59597  31782.000000  0   -1196973.303   -115742.944  -6789149.602
10 0 59597  31902.000000  0   -1842496.954    516108.689  -6623946.466
10 0 59597  32022.000000  0   -2445025.760   1149940.887  -6343173.375
10 0 59597  32142.000000  0   -2994167.042   1773918.668  -5951664.988
10 0 59597  32262.000000  0   -3480638.345   2376186.495  -5456175.319
10 0 59597  32382.000000  0   -3896426.747   2945091.161  -4865273.307
10 0 59597  32502.000000  0   -4234926.125   3469406.984  -4189205.304
10 0 59597  32622.000000  0   -4491047.527   3938558.479  -3439726.739
10 0 59597  32742.000000  0   -4661301.467   4342836.854  -2629906.451
10 0 59597  32862.000000  0   -4743850.917   4673604.796  -1773903.596
10 0 59597  32982.000000  0   -4738532.084   4923484.695   -886721.827
10 0 59597  33102.000000  0   -4646842.773   5086526.005     16056.672
10 0 59597  33222.000000  0   -4471894.907   5158345.733    918551.597
10 0 59597  33342.000000  0   -4218336.080   5136238.458   1804872.101
10 0 59597  33462.000000  0   -3892238.046   5019251.775   2659407.365
10 0 59597  33582.000000  0   -3500956.032   4808225.485   3467109.864
10 0 59597  33702.000000  0   -3052963.878   4505794.900   4213766.016
10 0 59597  33822.000000  0   -2557669.827   4116358.453   4886250.093
10 0 59597  33942.000000  0   -2025216.191   3646009.513   5472756.168
10 0 59597  34062.000000  0   -1466268.609   3102434.538   5963003.375
10 0 59597  34182.000000  0    -891799.577   2494780.685   6348411.294
10 0 59597  34302.000000  0    -312872.034   1833495.920   6622242.784
10 0 59597  34422.000000  0     259572.848   1130146.577   6779715.927
10 0 59597  34542.000000  0     814922.237    397212.843   6818082.329
10 0 59597  34662.000000  0    1343087.261   -352132.122   6736671.453
10 0 59597  34782.000000  0    1834685.329  -1104258.102   6536902.571
10 0 59597  34902.000000  0    2281206.570  -1845325.059   6222261.616
10 0 59597  35022.000000  0    2675162.177  -2561537.458   5798245.342
10 0 59597  35142.000000  0    3010212.496  -3239402.465   5272270.658
10 0 59597  35262.000000  0    3281271.351  -3865986.794   4653550.686
10 0 59597  35382.000000  0    3484586.105  -4429167.818   3952939.228
10 0 59597  35502.000000  0    3617791.321  -4917874.485   3182743.570
10 0 59597  35622.000000  0    3679933.727  -5322311.275   2356509.138
10 0 59597  35742.000000  0    3671468.540  -5634160.849   1488779.238
10 0 59597  35862.000000  0    3594226.471  -5846759.641    594834.088
10 0 59597  35982.000000  0    3451352.277  -5955240.913   -309584.534
10 0 59597  36102.000000  0    3247217.712  -5956644.835  -1208558.731
10 0 59597  36222.000000  0    2987307.219  -5849988.314  -2086284.580
10 0 59597  36342.000000  0    2678082.706  -5636295.400  -2927356.762
10 0 59597  36462.000000  0    2326830.194  -5318587.224  -3717045.171
10 0 59597  36582.000000  0    1941491.455  -4901831.228  -4441555.442
99
